<?xml version="1.0" encoding="UTF-8"?>
<ndm xmlns:xsi="http://www.w3.org/2001/XMLSchema-instance" xsi:noNamespaceSchemaLocation="https://sanaregistry.org/r/ndmxml_unqualified/ndmxml-2.0.0-master-2.0.xsd">
<omm id="CCSDS_OMM_VERS" version="2.0">
<header><CREATION_DATE/><ORIGINATOR/></header><body><segment><metadata><OBJECT_NAME>ORBCOMM FM05</OBJECT_NAME><OBJECT_ID>1997-084F</OBJECT_ID><CENTER_NAME>EARTH</CENTER_NAME><REF_FRAME>TEME</REF_FRAME><TIME_SYSTEM>UTC</TIME_SYSTEM><MEAN_ELEMENT_THEORY>SGP4</MEAN_ELEMENT_THEORY></metadata><data><meanElements><EPOCH>2025-09-07T21:55:22.122336</EPOCH><MEAN_MOTION>14.46180712</MEAN_MOTION><ECCENTRICITY>.00042747</ECCENTRICITY><INCLINATION>45.0156</INCLINATION><RA_OF_ASC_NODE>330.7898</RA_OF_ASC_NODE><ARG_OF_PERICENTER>253.7846</ARG_OF_PERICENTER><MEAN_ANOMALY>106.2536</MEAN_ANOMALY></meanElements><tleParameters><EPHEMERIS_TYPE>0</EPHEMERIS_TYPE><CLASSIFICATION_TYPE>U</CLASSIFICATION_TYPE><NORAD_CAT_ID>25117</NORAD_CAT_ID><ELEMENT_SET_NO>999</ELEMENT_SET_NO><REV_AT_EPOCH>45258</REV_AT_EPOCH><BSTAR>.51955933E-3</BSTAR><MEAN_MOTION_DOT>.1731E-4</MEAN_MOTION_DOT><MEAN_MOTION_DDOT>0</MEAN_MOTION_DDOT></tleParameters></data></segment></body></omm>
<omm id="CCSDS_OMM_VERS" version="2.0">
<header><CREATION_DATE/><ORIGINATOR/></header><body><segment><metadata><OBJECT_NAME>ORBCOMM FM06</OBJECT_NAME><OBJECT_ID>1997-084G</OBJECT_ID><CENTER_NAME>EARTH</CENTER_NAME><REF_FRAME>TEME</REF_FRAME><TIME_SYSTEM>UTC</TIME_SYSTEM><MEAN_ELEMENT_THEORY>SGP4</MEAN_ELEMENT_THEORY></metadata><data><meanElements><EPOCH>2025-09-07T17:11:48.961824</EPOCH><MEAN_MOTION>14.46326112</MEAN_MOTION><ECCENTRICITY>.00032833</ECCENTRICITY><INCLINATION>45.0148</INCLINATION><RA_OF_ASC_NODE>331.3808</RA_OF_ASC_NODE><ARG_OF_PERICENTER>247.3451</ARG_OF_PERICENTER><MEAN_ANOMALY>249.2742</MEAN_ANOMALY></meanElements><tleParameters><EPHEMERIS_TYPE>0</EPHEMERIS_TYPE><CLASSIFICATION_TYPE>U</CLASSIFICATION_TYPE><NORAD_CAT_ID>25118</NORAD_CAT_ID><ELEMENT_SET_NO>999</ELEMENT_SET_NO><REV_AT_EPOCH>45347</REV_AT_EPOCH><BSTAR>.59453097E-3</BSTAR><MEAN_MOTION_DOT>.2008E-4</MEAN_MOTION_DOT><MEAN_MOTION_DDOT>0</MEAN_MOTION_DDOT></tleParameters></data></segment></body></omm>
<omm id="CCSDS_OMM_VERS" version="2.0">
<header><CREATION_DATE/><ORIGINATOR/></header><body><segment><metadata><OBJECT_NAME>ORBCOMM FM07</OBJECT_NAME><OBJECT_ID>1997-084H</OBJECT_ID><CENTER_NAME>EARTH</CENTER_NAME><REF_FRAME>TEME</REF_FRAME><TIME_SYSTEM>UTC</TIME_SYSTEM><MEAN_ELEMENT_THEORY>SGP4</MEAN_ELEMENT_THEORY></metadata><data><meanElements><EPOCH>2025-09-07T21:51:36.898272</EPOCH><MEAN_MOTION>14.46335819</MEAN_MOTION><ECCENTRICITY>.00051145</ECCENTRICITY><INCLINATION>45.0141</INCLINATION><RA_OF_ASC_NODE>331.2112</RA_OF_ASC_NODE><ARG_OF_PERICENTER>253.6754</ARG_OF_PERICENTER><MEAN_ANOMALY>106.3535</MEAN_ANOMALY></meanElements><tleParameters><EPHEMERIS_TYPE>0</EPHEMERIS_TYPE><CLASSIFICATION_TYPE>U</CLASSIFICATION_TYPE><NORAD_CAT_ID>25119</NORAD_CAT_ID><ELEMENT_SET_NO>999</ELEMENT_SET_NO><REV_AT_EPOCH>45349</REV_AT_EPOCH><BSTAR>.53619063E-3</BSTAR><MEAN_MOTION_DOT>.1797E-4</MEAN_MOTION_DOT><MEAN_MOTION_DDOT>0</MEAN_MOTION_DDOT></tleParameters></data></segment></body></omm>
<omm id="CCSDS_OMM_VERS" version="2.0">
<header><CREATION_DATE/><ORIGINATOR/></header><body><segment><metadata><OBJECT_NAME>ORBCOMM FM03</OBJECT_NAME><OBJECT_ID>1998-007B</OBJECT_ID><CENTER_NAME>EARTH</CENTER_NAME><REF_FRAME>TEME</REF_FRAME><TIME_SYSTEM>UTC</TIME_SYSTEM><MEAN_ELEMENT_THEORY>SGP4</MEAN_ELEMENT_THEORY></metadata><data><meanElements><EPOCH>2025-09-07T21:28:28.003584</EPOCH><MEAN_MOTION>14.34674373</MEAN_MOTION><ECCENTRICITY>.00430415</ECCENTRICITY><INCLINATION>107.9659</INCLINATION><RA_OF_ASC_NODE>305.5320</RA_OF_ASC_NODE><ARG_OF_PERICENTER>105.4285</ARG_OF_PERICENTER><MEAN_ANOMALY>255.1615</MEAN_ANOMALY></meanElements><tleParameters><EPHEMERIS_TYPE>0</EPHEMERIS_TYPE><CLASSIFICATION_TYPE>U</CLASSIFICATION_TYPE><NORAD_CAT_ID>25158</NORAD_CAT_ID><ELEMENT_SET_NO>999</ELEMENT_SET_NO><REV_AT_EPOCH>43590</REV_AT_EPOCH><BSTAR>.4614998E-3</BSTAR><MEAN_MOTION_DOT>.1189E-4</MEAN_MOTION_DOT><MEAN_MOTION_DDOT>0</MEAN_MOTION_DDOT></tleParameters></data></segment></body></omm>
<omm id="CCSDS_OMM_VERS" version="2.0">
<header><CREATION_DATE/><ORIGINATOR/></header><body><segment><metadata><OBJECT_NAME>ORBCOMM FM04</OBJECT_NAME><OBJECT_ID>1998-007C</OBJECT_ID><CENTER_NAME>EARTH</CENTER_NAME><REF_FRAME>TEME</REF_FRAME><TIME_SYSTEM>UTC</TIME_SYSTEM><MEAN_ELEMENT_THEORY>SGP4</MEAN_ELEMENT_THEORY></metadata><data><meanElements><EPOCH>2025-09-07T22:25:42.851136</EPOCH><MEAN_MOTION>14.34920301</MEAN_MOTION><ECCENTRICITY>.0038747</ECCENTRICITY><INCLINATION>107.9644</INCLINATION><RA_OF_ASC_NODE>308.8902</RA_OF_ASC_NODE><ARG_OF_PERICENTER>102.7836</ARG_OF_PERICENTER><MEAN_ANOMALY>257.7638</MEAN_ANOMALY></meanElements><tleParameters><EPHEMERIS_TYPE>0</EPHEMERIS_TYPE><CLASSIFICATION_TYPE>U</CLASSIFICATION_TYPE><NORAD_CAT_ID>25159</NORAD_CAT_ID><ELEMENT_SET_NO>999</ELEMENT_SET_NO><REV_AT_EPOCH>43609</REV_AT_EPOCH><BSTAR>.4712392E-3</BSTAR><MEAN_MOTION_DOT>.1221E-4</MEAN_MOTION_DOT><MEAN_MOTION_DDOT>0</MEAN_MOTION_DDOT></tleParameters></data></segment></body></omm>
<omm id="CCSDS_OMM_VERS" version="2.0">
<header><CREATION_DATE/><ORIGINATOR/></header><body><segment><metadata><OBJECT_NAME>ORBCOMM FM17</OBJECT_NAME><OBJECT_ID>1998-046A</OBJECT_ID><CENTER_NAME>EARTH</CENTER_NAME><REF_FRAME>TEME</REF_FRAME><TIME_SYSTEM>UTC</TIME_SYSTEM><MEAN_ELEMENT_THEORY>SGP4</MEAN_ELEMENT_THEORY></metadata><data><meanElements><EPOCH>2025-09-07T07:56:43.248768</EPOCH><MEAN_MOTION>14.35234860</MEAN_MOTION><ECCENTRICITY>.00049291</ECCENTRICITY><INCLINATION>44.9933</INCLINATION><RA_OF_ASC_NODE>229.8901</RA_OF_ASC_NODE><ARG_OF_PERICENTER>279.0562</ARG_OF_PERICENTER><MEAN_ANOMALY>80.9727</MEAN_ANOMALY></meanElements><tleParameters><EPHEMERIS_TYPE>0</EPHEMERIS_TYPE><CLASSIFICATION_TYPE>U</CLASSIFICATION_TYPE><NORAD_CAT_ID>25413</NORAD_CAT_ID><ELEMENT_SET_NO>999</ELEMENT_SET_NO><REV_AT_EPOCH>41497</REV_AT_EPOCH><BSTAR>.46573115E-3</BSTAR><MEAN_MOTION_DOT>.1204E-4</MEAN_MOTION_DOT><MEAN_MOTION_DDOT>0</MEAN_MOTION_DDOT></tleParameters></data></segment></body></omm>
<omm id="CCSDS_OMM_VERS" version="2.0">
<header><CREATION_DATE/><ORIGINATOR/></header><body><segment><metadata><OBJECT_NAME>ORBCOMM FM18</OBJECT_NAME><OBJECT_ID>1998-046B</OBJECT_ID><CENTER_NAME>EARTH</CENTER_NAME><REF_FRAME>TEME</REF_FRAME><TIME_SYSTEM>UTC</TIME_SYSTEM><MEAN_ELEMENT_THEORY>SGP4</MEAN_ELEMENT_THEORY></metadata><data><meanElements><EPOCH>2025-09-07T22:00:51.383232</EPOCH><MEAN_MOTION>14.38751112</MEAN_MOTION><ECCENTRICITY>.0005788</ECCENTRICITY><INCLINATION>44.9924</INCLINATION><RA_OF_ASC_NODE>142.2961</RA_OF_ASC_NODE><ARG_OF_PERICENTER>345.1413</ARG_OF_PERICENTER><MEAN_ANOMALY>14.9264</MEAN_ANOMALY></meanElements><tleParameters><EPHEMERIS_TYPE>0</EPHEMERIS_TYPE><CLASSIFICATION_TYPE>U</CLASSIFICATION_TYPE><NORAD_CAT_ID>25414</NORAD_CAT_ID><ELEMENT_SET_NO>999</ELEMENT_SET_NO><REV_AT_EPOCH>41616</REV_AT_EPOCH><BSTAR>.53856491E-3</BSTAR><MEAN_MOTION_DOT>.1527E-4</MEAN_MOTION_DOT><MEAN_MOTION_DDOT>0</MEAN_MOTION_DDOT></tleParameters></data></segment></body></omm>
<omm id="CCSDS_OMM_VERS" version="2.0">
<header><CREATION_DATE/><ORIGINATOR/></header><body><segment><metadata><OBJECT_NAME>ORBCOMM FM19</OBJECT_NAME><OBJECT_ID>1998-046C</OBJECT_ID><CENTER_NAME>EARTH</CENTER_NAME><REF_FRAME>TEME</REF_FRAME><TIME_SYSTEM>UTC</TIME_SYSTEM><MEAN_ELEMENT_THEORY>SGP4</MEAN_ELEMENT_THEORY></metadata><data><meanElements><EPOCH>2025-09-07T21:26:44.807424</EPOCH><MEAN_MOTION>14.38563895</MEAN_MOTION><ECCENTRICITY>.0004541</ECCENTRICITY><INCLINATION>44.9929</INCLINATION><RA_OF_ASC_NODE>144.5370</RA_OF_ASC_NODE><ARG_OF_PERICENTER>341.2147</ARG_OF_PERICENTER><MEAN_ANOMALY>115.0031</MEAN_ANOMALY></meanElements><tleParameters><EPHEMERIS_TYPE>0</EPHEMERIS_TYPE><CLASSIFICATION_TYPE>U</CLASSIFICATION_TYPE><NORAD_CAT_ID>25415</NORAD_CAT_ID><ELEMENT_SET_NO>999</ELEMENT_SET_NO><REV_AT_EPOCH>41611</REV_AT_EPOCH><BSTAR>.5123218E-3</BSTAR><MEAN_MOTION_DOT>.144E-4</MEAN_MOTION_DOT><MEAN_MOTION_DDOT>0</MEAN_MOTION_DDOT></tleParameters></data></segment></body></omm>

</ndm>
