ORBCOMM FM05            
1 25117U 97084F   25250.91345049  .00001731  00000+0  51956-3 0  9993
2 25117  45.0156 330.7898 0004274 253.7846 106.2536 14.46180712452580
ORBCOMM FM06            
1 25118U 97084G   25250.71653891  .00002008  00000+0  59453-3 0  9997
2 25118  45.0148 331.3808 0003283 247.3451 249.2742 14.46326112453472
ORBCOMM FM07            
1 25119U 97084H   25250.91084373  .00001797  00000+0  53619-3 0  9995
2 25119  45.0141 331.2112 0005114 253.6754 106.3535 14.46335819453493
ORBCOMM FM03            
1 25158U 98007B   25250.89476856  .00001189  00000+0  46150-3 0  9999
2 25158 107.9659 305.5320 0043041 105.4285 255.1615 14.34674373435903
ORBCOMM FM04            
1 25159U 98007C   25250.93452374  .00001221  00000+0  47124-3 0  9993
2 25159 107.9644 308.8902 0038747 102.7836 257.7638 14.34920301436098
ORBCOMM FM17            
1 25413U 98046A   25250.33105612  .00001204  00000+0  46573-3 0  9991
2 25413  44.9933 229.8901 0004929 279.0562  80.9727 14.35234860414979
ORBCOMM FM18            
1 25414U 98046B   25250.91726138  .00001527  00000+0  53856-3 0  9998
2 25414  44.9924 142.2961 0005788 345.1413  14.9264 14.38751112416161
ORBCOMM FM19            
1 25415U 98046C   25250.89357416  .00001440  00000+0  51232-3 0  9995
2 25415  44.9929 144.5370 0004541 341.2147 115.0031 14.38563895416112
